NORAD_CAT_ID,OBJECT_NAME,OBJECT_TYPE,EPOCH,MEAN_MOTION,ECCENTRICITY,INCLINATION,RA_OF_ASC_NODE,ARG_OF_PERICENTER,MEAN_ANOMALY,BSTAR,MEAN_MOTION_DOT,MEAN_MOTION_DDOT,TLE_LINE0,TLE_LINE1,TLE_LINE2,SEMIMAJOR_AXIS,PERIOD,APOGEE,PERIGEE,DECAYED
55757.0,STARLINK-5544,PAYLOAD,2024-02-15 02:47:37,14.98323789,0.0002442,70.0019,344.4241,254.8839,105.205,1.4974e-05,8.6e-07,0.0,0 STARLINK-5544,1 55757U 23028S   24046.11640723  .00000086  00000-0  14974-4 0  9997,2 55757  70.0019 344.4241 0002442 254.8839 105.2050 14.98323789 53163,6950.212,96.107,573.774,570.38,0.0
55757.0,STARLINK-5544,PAYLOAD,2024-02-15 05:59:53,14.98327407,0.0002843,70.0006,344.0857,268.9645,91.1188,-6.192e-06,-1.67e-06,0.0,0 STARLINK-5544,1 55757U 23028S   24046.24992619 -.00000167  00000-0 -61920-5 0  9991,2 55757  70.0006 344.0857 0002843 268.9645  91.1188 14.98327407 53182,6950.201,96.107,574.042,570.09,0.0
55757.0,STARLINK-5544,PAYLOAD,2024-02-16 04:25:46,14.98333548,0.0002662,70.001,341.731,260.2142,99.8716,4.0485e-05,3.9e-06,0.0,0 STARLINK-5544,1 55757U 23028S   24047.18456229  .00000390  00000-0  40485-4 0  9995,2 55757  70.0010 341.7310 0002662 260.2142  99.8716 14.98333548 53322,6950.182,96.107,573.897,570.197,0.0
55757.0,STARLINK-5544,PAYLOAD,2024-02-16 12:26:26,14.9832481,0.0002439,70.0012,340.889,267.301,92.787,0.00015034,1.701e-05,0.0,0 STARLINK-5544,1 55757U 23028S   24047.51836541  .00001701  00000-0  15034-3 0  9999,2 55757  70.0012 340.8890 0002439 267.3010  92.7870 14.98324810 53371,6950.209,96.107,573.769,570.379,0.0
55757.0,STARLINK-5544,PAYLOAD,2024-02-16 22:03:14,14.98327533,0.000265,70.0009,339.8792,267.1321,92.9535,9.869e-05,1.085e-05,0.0,0 STARLINK-5544,1 55757U 23028S   24047.91892332  .00001085  00000-0  98690-4 0  9998,2 55757  70.0009 339.8792 0002650 267.1321  92.9535 14.98327533 53436,6950.201,96.107,573.907,570.224,0.0
55757.0,STARLINK-5544,PAYLOAD,2024-02-17 12:28:27,14.98350782,0.0002784,70.0014,338.3651,272.875,87.2091,-0.00029855,-3.655e-05,0.0,0 STARLINK-5544,1 55757U 23028S   24048.51975732 -.00003655  00000-0 -29855-3 0  9994,2 55757  70.0014 338.3651 0002784 272.8750  87.2091 14.98350782 53523,6950.129,96.106,573.929,570.059,0.0
55757.0,STARLINK-5544,PAYLOAD,2024-02-17 20:29:08,14.9832961,0.000275,70.0016,337.5239,270.9662,89.1182,-1.0168e-05,-2.14e-06,0.0,0 STARLINK-5544,1 55757U 23028S   24048.85356494 -.00000214  00000-0 -10168-4 0  9995,2 55757  70.0016 337.5239 0002750 270.9662  89.1182 14.98329610 53575,6950.194,96.107,573.97,570.148,0.0
55757.0,STARLINK-5544,PAYLOAD,2024-02-17 22:05:16,14.98328987,0.0002883,70.0014,337.3553,273.7289,86.3541,-1.9337e-05,-3.24e-06,0.0,0 STARLINK-5544,1 55757U 23028S   24048.92032555 -.00000324  00000-0 -19337-4 0  9991,2 55757  70.0014 337.3553 0002883 273.7289  86.3541 14.98328987 53588,6950.196,96.107,574.065,570.057,0.0
55757.0,STARLINK-5544,PAYLOAD,2024-02-18 06:05:55,14.98335975,0.0002664,70.0009,336.5129,265.7137,94.3717,2.9762e-05,2.62e-06,0.0,0 STARLINK-5544,1 55757U 23028S   24049.25411904  .00000262  00000-0  29762-4 0  9999,2 55757  70.0009 336.5129 0002664 265.7137  94.3717 14.98335975 53637,6950.174,96.107,573.891,570.188,0.0
55757.0,STARLINK-5544,PAYLOAD,2024-02-18 12:30:28,14.98331753,0.0002608,70.001,335.8377,274.6098,85.4763,-7.0943e-05,-9.39e-06,0.0,0 STARLINK-5544,1 55757U 23028S   24049.52116419 -.00000939  00000-0 -70943-4 0  9992,2 55757  70.0010 335.8377 0002608 274.6098  85.4763 14.98331753 53675,6950.187,96.107,573.865,570.24,0.0
55757.0,STARLINK-5544,PAYLOAD,2024-02-18 22:07:16,14.98329204,0.0002812,70.0007,334.8276,270.7007,89.383,3.3219e-05,3.03e-06,0.0,0 STARLINK-5544,1 55757U 23028S   24049.92172178  .00000303  00000-0  33219-4 0  9998,2 55757  70.0007 334.8276 0002812 270.7007  89.3830 14.98329204 53735,6950.195,96.107,574.015,570.106,0.0
55757.0,STARLINK-5544,PAYLOAD,2024-02-19 12:32:29,14.98329376,0.0002204,70.0024,333.3136,279.0006,81.0904,-2.2077e-05,-3.56e-06,0.0,0 STARLINK-5544,1 55757U 23028S   24050.52256391 -.00000356  00000-0 -22077-4 0  9996,2 55757  70.0024 333.3136 0002204 279.0006  81.0904 14.98329376 53820,6950.195,96.107,573.592,570.528,0.0
55757.0,STARLINK-5544,PAYLOAD,2024-02-19 20:33:09,14.98323105,0.0002664,70.0012,332.4711,272.5343,87.5511,2.0141e-05,1.47e-06,0.0,0 STARLINK-5544,1 55757U 23028S   24050.85636518  .00000147  00000-0  20141-4 0  9991,2 55757  70.0012 332.4711 0002664 272.5343  87.5511 14.98323105 53872,6950.214,96.107,573.931,570.228,0.0
55757.0,STARLINK-5544,PAYLOAD,2024-02-19 22:09:18,14.98323944,0.0002577,70.0019,332.3037,274.7039,85.3826,2.8243e-05,2.44e-06,0.0,0 STARLINK-5544,1 55757U 23028S   24050.92312510  .00000244  00000-0  28243-4 0  9991,2 55757  70.0019 332.3037 0002577 274.7039  85.3826 14.98323944 53885,6950.212,96.107,573.868,570.286,0.0
55757.0,STARLINK-5544,PAYLOAD,2024-02-20 04:33:50,14.98314386,0.0002617,70.0013,331.6294,269.2187,90.8672,0.00011518,1.281e-05,0.0,0 STARLINK-5544,1 55757U 23028S   24051.19016997  .00001281  00000-0  11518-3 0  9999,2 55757  70.0013 331.6294 0002617 269.2187  90.8672 14.98314386 53929,6950.241,96.108,573.925,570.287,0.0
55757.0,STARLINK-5544,PAYLOAD,2024-02-20 18:59:02,14.98327768,0.0002707,70.001,330.1149,269.1304,90.9545,9.5171e-05,1.043e-05,0.0,0 STARLINK-5544,1 55757U 23028S   24051.79100191  .00001043  00000-0  95171-4 0  9999,2 55757  70.0010 330.1149 0002707 269.1304  90.9545 14.98327768 54018,6950.2,96.107,573.946,570.183,0.0
55757.0,STARLINK-5544,PAYLOAD,2024-02-20 22:11:18,14.98332853,0.0002631,70.001,329.7779,269.2392,90.8465,1.9154e-05,1.36e-06,0.0,0 STARLINK-5544,1 55757U 23028S   24051.92452067  .00000136  00000-0  19154-4 0  9995,2 55757  70.0010 329.7779 0002631 269.2392  90.8465 14.98332853 54038,6950.184,96.107,573.878,570.22,0.0
55757.0,STARLINK-5544,PAYLOAD,2024-02-21 04:35:51,14.98281859,0.0002287,70.001,329.1051,272.8613,87.2285,0.0010046,0.00011899,0.0,0 STARLINK-5544,1 55757U 23028S   24052.19156876  .00011899  00000-0  10046-2 0  9991,2 55757  70.0010 329.1051 0002287 272.8613  87.2285 14.98281859 54071,6950.342,96.11,573.796,570.617,0.0
55757.0,STARLINK-5544,PAYLOAD,2024-02-21 19:01:03,14.9832533,0.0002595,70.0011,327.5907,273.0987,86.9875,4.3528e-05,4.26e-06,0.0,0 STARLINK-5544,1 55757U 23028S   24052.79240372  .00000426  00000-0  43528-4 0  9999,2 55757  70.0011 327.5907 0002595 273.0987  86.9875 14.98325330 54167,6950.207,96.107,573.876,570.269,0.0
55757.0,STARLINK-5544,PAYLOAD,2024-02-21 22:13:19,14.98324708,0.0002616,70.0011,327.2541,273.0347,87.0513,3.5857e-05,3.35e-06,0.0,0 STARLINK-5544,1 55757U 23028S   24052.92592458  .00000335  00000-0  35857-4 0  9994,2 55757  70.0011 327.2541 0002616 273.0347  87.0513 14.98324708 54183,6950.209,96.107,573.892,570.256,0.0
55757.0,STARLINK-5544,PAYLOAD,2024-02-22 11:02:24,14.98330845,0.0002497,70.0012,325.9086,270.423,89.6643,3.9396e-05,3.77e-06,0.0,0 STARLINK-5544,1 55757U 23028S   24053.46000136  .00000377  00000-0  39396-4 0  9999,2 55757  70.0012 325.9086 0002497 270.4230  89.6643 14.98330845 54262,6950.19,96.107,573.791,570.32,0.0
55757.0,STARLINK-5544,PAYLOAD,2024-02-22 19:03:03,14.98339065,0.0002619,70.0008,325.0666,268.7832,91.3027,1.6292e-05,1.01e-06,0.0,0 STARLINK-5544,1 55757U 23028S   24053.79379558  .00000101  00000-0  16292-4 0  9997,2 55757  70.0008 325.0666 0002619 268.7832  91.3027 14.98339065 54311,6950.165,96.106,573.85,570.21,0.0
55757.0,STARLINK-5544,PAYLOAD,2024-02-22 20:39:11,14.98338711,0.0002641,70.0007,324.8985,267.883,92.2026,9.796e-06,2.4e-07,0.0,0 STARLINK-5544,1 55757U 23028S   24053.86055550  .00000024  00000-0  97960-5 0  9994,2 55757  70.0007 324.8985 0002641 267.8830  92.2026 14.98338711 54321,6950.166,96.106,573.866,570.195,0.0
55757.0,STARLINK-5544,PAYLOAD,2024-02-23 11:04:24,14.98334319,0.0002518,70.0009,323.3821,274.7305,85.3566,-4.1474e-05,-5.88e-06,0.0,0 STARLINK-5544,1 55757U 23028S   24054.46139744 -.00000588  00000-0 -41474-4 0  9994,2 55757  70.0009 323.3821 0002518 274.7305  85.3566 14.98334319 54415,6950.18,96.107,573.795,570.294,0.0
55757.0,STARLINK-5544,PAYLOAD,2024-02-23 20:41:13,14.98326584,0.0002716,70.0003,322.3743,266.826,93.2588,-5.8752e-05,-7.94e-06,0.0,0 STARLINK-5544,1 55757U 23028S   24054.86196250 -.00000794  00000-0 -58752-4 0  9999,2 55757  70.0003 322.3743 0002716 266.8260  93.2588 14.98326584 54476,6950.203,96.107,573.956,570.181,0.0
55757.0,STARLINK-5544,PAYLOAD,2024-02-23 22:17:21,14.98324602,0.0002755,70.0006,322.206,266.735,93.3494,-7.1696e-05,-9.48e-06,0.0,0 STARLINK-5544,1 55757U 23028S   24054.92872414 -.00000948  00000-0 -71696-4 0  9992,2 55757  70.0006 322.2060 0002755 266.7350  93.3494 14.98324602 54489,6950.21,96.107,573.989,570.16,0.0
55757.0,STARLINK-5544,PAYLOAD,2024-02-24 11:06:26,14.98327525,0.0002576,70.0009,320.8582,270.0024,90.084,-1.5803e-05,-2.81e-06,0.0,0 STARLINK-5544,1 55757U 23028S   24055.46280255 -.00000281  00000-0 -15803-4 0  9996,2 55757  70.0009 320.8582 0002576 270.0024  90.0840 14.98327525 54567,6950.201,96.107,573.856,570.275,0.0
55757.0,STARLINK-5544,PAYLOAD,2024-02-25 03:07:46,14.98331826,0.0002544,70.0007,319.1751,257.7142,102.3732,3.6093e-05,3.38e-06,0.0,0 STARLINK-5544,1 55757U 23028S   24056.13039707  .00000338  00000-0  36093-4 0  9990,2 55757  70.0007 319.1751 0002544 257.7142 102.3732 14.98331826 54669,6950.187,96.107,573.82,570.284,0.0
55757.0,STARLINK-5544,PAYLOAD,2024-02-25 11:08:26,14.98334971,0.0002742,70.0003,318.3329,267.8872,92.1973,-2.0798e-05,-3.41e-06,0.0,0 STARLINK-5544,1 55757U 23028S   24056.46419564 -.00000341  00000-0 -20798-4 0  9990,2 55757  70.0003 318.3329 0002742 267.8872  92.1973 14.98334971 54712,6950.178,96.107,573.948,570.137,0.0
55757.0,STARLINK-5544,PAYLOAD,2024-02-25 22:21:22,14.98330311,0.0002836,70.0001,317.1543,266.9645,93.1189,0.00013129,1.474e-05,0.0,0 STARLINK-5544,1 55757U 23028S   24056.93151361  .00001474  00000-0  13129-3 0  9995,2 55757  70.0001 317.1543 0002836 266.9645  93.1189 14.98330311 54788,6950.192,96.107,574.028,570.086,0.0
